IRIDIUM 39              
1 25042U 97069D   25087.89296304  .00001997  00000+0  52014-3 0  9997
2 25042  86.3881 245.5409 0016892 209.2669 150.7590 14.49049957437337
IRIDIUM 38              
1 25043U 97069E   25087.94132381  .00001196  00000+0  38909-3 0  9996
2 25043  86.3897 266.9238 0002851  48.1442 311.9999 14.38003834434424
IRIDIUM 42              
1 25077U 97077A   25087.77950237  .00001089  00000+0  36639-3 0  9990
2 25077  86.3900 273.0691 0002430  73.6303 286.5161 14.36247488429650
IRIDIUM 44              
1 25078U 97077B   25087.95092616  .00001256  00000+0  39168-3 0  9995
2 25078  86.3912 255.1142 0000768  28.7728 331.3513 14.40134911432150
IRIDIUM 45              
1 25104U 97082A   25087.97299909  .00028752  00000+0  11350-2 0  9999
2 25104  86.3537  86.7475 0121199 271.4960  87.2401 15.18754124439854
IRIDIUM 24              
1 25105U 97082B   25087.81863057  .00001138  00000+0  34120-3 0  9994
2 25105  86.3867 114.4032 0010921 355.7358   4.3747 14.41977707431636
IRIDIUM 51              
1 25262U 98018A   25087.73543633  .00039167  00000+0  10461-2 0  9998
2 25262  86.3804  95.4772 0098156 195.9774 163.8376 15.33080982434670
IRIDIUM 57              
1 25273U 98019B   25087.33309132  .00000915  00000+0  30974-3 0  9992
2 25273  86.4035 179.1107 0002176  93.1031 267.0415 14.35815260413183
